ORBCOMM-X               
1 21576U 91050C   25361.16711896  .00000402  00000+0  13157-3 0  9997
2 21576  98.3210  63.6143 0002969 341.0153  19.0927 14.43447372809950
ORBCOMM FM01            
1 23545U 95017A   25361.28998410  .00009070  00000+0  87165-3 0  9994
2 23545  69.9630 311.5755 0004491 327.2797  32.8081 14.93299455641303
ORBCOMM FM02            
1 23546U 95017B   25361.28229029  .00013151  00000+0  12078-2 0  9993
2 23546  69.9647 330.1335 0005785 339.6336  20.4590 14.94948692640971
ORBCOMM FM08            
1 25112U 97084A   25360.50168184  .00001528  00000+0  45901-3 0  9995
2 25112  45.0118 164.1368 0007096 147.3841 212.7450 14.46635099469211
ORBCOMM FM10            
1 25113U 97084B   25361.13468836  .00001738  00000+0  51927-3 0  9991
2 25113  45.0134 163.8345 0005279 120.7173 239.4200 14.46383277644442
ORBCOMM FM11            
1 25114U 97084C   25361.17329603  .00001839  00000+0  54998-3 0  9997
2 25114  45.0118 164.6399 0006089 120.9159 239.2292 14.46128602469408
ORBCOMM FM12            
1 25115U 97084D   25360.51128515  .00001380  00000+0  42274-3 0  9999
2 25115  45.0122 167.5493 0005150 115.7361 244.4023 14.46145582469109
ORBCOMM FM09            
1 25116U 97084E   25360.76924128  .00001316  00000+0  40638-3 0  9992
2 25116  45.0127 167.4556 0006175 104.3941 255.7596 14.45982927469347
